{"type": "FeatureCollection", "features": [ {"type": "Feature", "properties": {"norad_id": 34635, "name": "COSMOS 2251 DEB", "group": "cosmos-2251-debris", "lat": 67.35804915049864, "lon": -164.0207694656081, "alt_km": 640.8254731788147, "timestamp": "2025-12-18T15:47:11.620261+00:00", "meta": {"OBJECT_NAME": "COSMOS 2251 DEB", "OBJECT_ID": "1993-036XG", "EPOCH": "2025-12-18T05:44:50.689248", "MEAN_MOTION": 14.68336779, "ECCENTRICITY": 0.00281062, "INCLINATION": 74.046, "RA_OF_ASC_NODE": 60.0871, "ARG_OF_PERICENTER": 127.0055, "MEAN_ANOMALY": 289.1307, "EPHEMERIS_TYPE": 0, "CLASSIFICATION_TYPE": "U", "NORAD_CAT_ID": 34635, "ELEMENT_SET_NO": 999, "REV_AT_EPOCH": 73300, "BSTAR": 0.00084770714, "MEAN_MOTION_DOT": 4.897e-05, "MEAN_MOTION_DDOT": 0}, "tle": {"line1": "1 34635U 93036XG  25352.23947557  .00004897  00000+0  84771-3 0  9998", "line2": "2 34635  74.0460  60.0871 0028106 127.0055 289.1307 14.68336779733000"}}, "geometry": {"type": "Point", "coordinates": [-164.0207694656081, 67.35804915049864]}}, {"type": "Feature", "properties": {"norad_id": 34637, "name": "COSMOS 2251 DEB", "group": "cosmos-2251-debris", "lat": 54.68606362841502, "lon": -113.94030708570621, "alt_km": 659.2391296850583, "timestamp": "2025-12-18T15:47:11.620271+00:00", "meta": {"OBJECT_NAME": "COSMOS 2251 DEB", "OBJECT_ID": "1993-036XJ", "EPOCH": "2025-12-18T07:17:16.992960", "MEAN_MOTION": 14.60145925, "ECCENTRICITY": 0.00493151, "INCLINATION": 74.0499, "RA_OF_ASC_NODE": 90.5452, "ARG_OF_PERICENTER": 159.6151, "MEAN_ANOMALY": 262.001, "EPHEMERIS_TYPE": 0, "CLASSIFICATION_TYPE": "U", "NORAD_CAT_ID": 34637, "ELEMENT_SET_NO": 999, "REV_AT_EPOCH": 88608, "BSTAR": 0.00070143827, "MEAN_MOTION_DOT": 3.406e-05, "MEAN_MOTION_DDOT": 0}, "tle": {"line1": "1 34637U 93036XJ  25352.30366890  .00003406  00000+0  70144-3 0  9997", "line2": "2 34637  74.0499  90.5452 0049315 159.6151 262.0010 14.60145925886081"}}, "geometry": {"type": "Point", "coordinates": [-113.94030708570621, 54.68606362841502]}}, {"type": "Feature", "properties": {"norad_id": 34641, "name": "COSMOS 2251 DEB", "group": "cosmos-2251-debris", "lat": -55.71056736542063, "lon": 45.198440314482525, "alt_km": 715.9480775198781, "timestamp": "2025-12-18T15:47:11.620281+00:00", "meta": {"OBJECT_NAME": "COSMOS 2251 DEB", "OBJECT_ID": "1993-036XN", "EPOCH": "2025-12-18T06:23:44.080224", "MEAN_MOTION": 14.52044087, "ECCENTRICITY": 0.0018715, "INCLINATION": 73.8399, "RA_OF_ASC_NODE": 71.1098, "ARG_OF_PERICENTER": 344.6386, "MEAN_ANOMALY": 71.632, "EPHEMERIS_TYPE": 0, "CLASSIFICATION_TYPE": "U", "NORAD_CAT_ID": 34641, "ELEMENT_SET_NO": 999, "REV_AT_EPOCH": 88336, "BSTAR": 0.00072302378, "MEAN_MOTION_DOT": 2.902e-05, "MEAN_MOTION_DDOT": 0}, "tle": {"line1": "1 34641U 93036XN  25352.26648241  .00002902  00000+0  72302-3 0  9998", "line2": "2 34641  73.8399  71.1098 0018715 344.6386  71.6320 14.52044087883363"}}, "geometry": {"type": "Point", "coordinates": [45.198440314482525, -55.71056736542063]}}, {"type": "Feature", "properties": {"norad_id": 34642, "name": "COSMOS 2251 DEB", "group": "cosmos-2251-debris", "lat": -23.601350189960105, "lon": -37.64834956541745, "alt_km": 1051.5206553162034, "timestamp": "2025-12-18T15:47:11.620292+00:00", "meta": {"OBJECT_NAME": "COSMOS 2251 DEB", "OBJECT_ID": "1993-036XP", "EPOCH": "2025-12-17T09:44:00.420288", "MEAN_MOTION": 13.98986651, "ECCENTRICITY": 0.02067887, "INCLINATION": 74.0047, "RA_OF_ASC_NODE": 331.7192, "ARG_OF_PERICENTER": 150.486, "MEAN_ANOMALY": 1.1723, "EPHEMERIS_TYPE": 0, "CLASSIFICATION_TYPE": "U", "NORAD_CAT_ID": 34642, "ELEMENT_SET_NO": 999, "REV_AT_EPOCH": 85358, "BSTAR": 0.00060314031, "MEAN_MOTION_DOT": 1.024e-05, "MEAN_MOTION_DDOT": 0}, "tle": {"line1": "1 34642U 93036XP  25351.40556042  .00001024  00000+0  60314-3 0  9995", "line2": "2 34642  74.0047 331.7192 0206788 150.4860   1.1723 13.98986651853583"}}, "geometry": {"type": "Point", "coordinates": [-37.64834956541745, -23.601350189960105]}}, {"type": "Feature", "properties": {"norad_id": 34671, "name": "COSMOS 2251 DEB", "group": "cosmos-2251-debris", "lat": 3.0226813965542814, "lon": 123.7370370792653, "alt_km": 680.1126609171997, "timestamp": "2025-12-18T15:47:11.620302+00:00", "meta": {"OBJECT_NAME": "COSMOS 2251 DEB", "OBJECT_ID": "1993-036XR", "EPOCH": "2025-12-18T03:28:26.721408", "MEAN_MOTION": 14.67026087, "ECCENTRICITY": 0.00110545, "INCLINATION": 74.0264, "RA_OF_ASC_NODE": 123.8605, "ARG_OF_PERICENTER": 204.5828, "MEAN_ANOMALY": 330.3401, "EPHEMERIS_TYPE": 0, "CLASSIFICATION_TYPE": "U", "NORAD_CAT_ID": 34671, "ELEMENT_SET_NO": 999, "REV_AT_EPOCH": 88376, "BSTAR": 0.0012127141, "MEAN_MOTION_DOT": 6.782e-05, "MEAN_MOTION_DDOT": 0}, "tle": {"line1": "1 34671U 93036XR  25352.14475372  .00006782  00000+0  12127-2 0  9999", "line2": "2 34671  74.0264 123.8605 0011054 204.5828 330.3401 14.67026087883768"}}, "geometry": {"type": "Point", "coordinates": [123.7370370792653, 3.0226813965542814]}}, {"type": "Feature", "properties": {"norad_id": 34672, "name": "COSMOS 2251 DEB", "group": "cosmos-2251-debris", "lat": -65.77314699085814, "lon": 154.2277440748902, "alt_km": 784.131831249967, "timestamp": "2025-12-18T15:47:11.620312+00:00", "meta": {"OBJECT_NAME": "COSMOS 2251 DEB", "OBJECT_ID": "1993-036XS", "EPOCH": "2025-12-17T14:22:04.175616", "MEAN_MOTION": 14.3641657, "ECCENTRICITY": 0.0023994, "INCLINATION": 74.0337, "RA_OF_ASC_NODE": 296.6612, "ARG_OF_PERICENTER": 7.5301, "MEAN_ANOMALY": 169.6418, "EPHEMERIS_TYPE": 0, "CLASSIFICATION_TYPE": "U", "NORAD_CAT_ID": 34672, "ELEMENT_SET_NO": 999, "REV_AT_EPOCH": 65247, "BSTAR": 0.00022492178, "MEAN_MOTION_DOT": 6.35e-06, "MEAN_MOTION_DDOT": 0}, "tle": {"line1": "1 34672U 93036XS  25351.59865944  .00000635  00000+0  22492-3 0  9994", "line2": "2 34672  74.0337 296.6612 0023994   7.5301 169.6418 14.36416570652479"}}, "geometry": {"type": "Point", "coordinates": [154.2277440748902, -65.77314699085814]}}, {"type": "Feature", "properties": {"norad_id": 34678, "name": "COSMOS 2251 DEB", "group": "cosmos-2251-debris", "lat": -57.03303253508628, "lon": -31.252919489035268, "alt_km": 802.1350048723434, "timestamp": "2025-12-18T15:47:11.620322+00:00", "meta": {"OBJECT_NAME": "COSMOS 2251 DEB", "OBJECT_ID": "1993-036XY", "EPOCH": "2025-12-18T04:53:54.445632", "MEAN_MOTION": 14.3006599, "ECCENTRICITY": 0.00245656, "INCLINATION": 74.0376, "RA_OF_ASC_NODE": 355.7581, "ARG_OF_PERICENTER": 43.1543, "MEAN_ANOMALY": 81.7384, "EPHEMERIS_TYPE": 0, "CLASSIFICATION_TYPE": "U", "NORAD_CAT_ID": 34678, "ELEMENT_SET_NO": 999, "REV_AT_EPOCH": 87457, "BSTAR": 2.8035568e-05, "MEAN_MOTION_DOT": 4.7e-07, "MEAN_MOTION_DDOT": 0}, "tle": {"line1": "1 34678U 93036XY  25352.20410238  .00000047  00000+0  28036-4 0  9999", "line2": "2 34678  74.0376 355.7581 0024565  43.1543  81.7384 14.30065990874572"}}, "geometry": {"type": "Point", "coordinates": [-31.252919489035268, -57.03303253508628]}}, {"type": "Feature", "properties": {"norad_id": 34680, "name": "COSMOS 2251 DEB", "group": "cosmos-2251-debris", "lat": 26.137982018258217, "lon": -69.51389854580839, "alt_km": 687.7897159351714, "timestamp": "2025-12-18T15:47:11.620332+00:00", "meta": {"OBJECT_NAME": "COSMOS 2251 DEB", "OBJECT_ID": "1993-036YA", "EPOCH": "2025-12-18T02:45:12.391200", "MEAN_MOTION": 14.6067956, "ECCENTRICITY": 0.00065727, "INCLINATION": 74.0426, "RA_OF_ASC_NODE": 119.5941, "ARG_OF_PERICENTER": 219.4546, "MEAN_ANOMALY": 318.8325, "EPHEMERIS_TYPE": 0, "CLASSIFICATION_TYPE": "U", "NORAD_CAT_ID": 34680, "ELEMENT_SET_NO": 999, "REV_AT_EPOCH": 88406, "BSTAR": 0.00087645293, "MEAN_MOTION_DOT": 4.243e-05, "MEAN_MOTION_DDOT": 0}, "tle": {"line1": "1 34680U 93036YA  25352.11472675  .00004243  00000+0  87645-3 0  9997", "line2": "2 34680  74.0426 119.5941 0006572 219.4546 318.8325 14.60679560884067"}}, "geometry": {"type": "Point", "coordinates": [-69.51389854580839, 26.137982018258217]}}, {"type": "Feature", "properties": {"norad_id": 34681, "name": "COSMOS 2251 DEB", "group": "cosmos-2251-debris", "lat": 35.30595121564064, "lon": 87.02213110353314, "alt_km": 633.6204128221561, "timestamp": "2025-12-18T15:47:11.620342+00:00", "meta": {"OBJECT_NAME": "COSMOS 2251 DEB", "OBJECT_ID": "1993-036YB", "EPOCH": "2025-12-18T06:06:40.538304", "MEAN_MOTION": 14.833449, "ECCENTRICITY": 0.0025619, "INCLINATION": 74.0632, "RA_OF_ASC_NODE": 279.4939, "ARG_OF_PERICENTER": 335.383, "MEAN_ANOMALY": 175.6516, "EPHEMERIS_TYPE": 0, "CLASSIFICATION_TYPE": "U", "NORAD_CAT_ID": 34681, "ELEMENT_SET_NO": 999, "REV_AT_EPOCH": 89352, "BSTAR": 0.0012979491, "MEAN_MOTION_DOT": 0.00010681, "MEAN_MOTION_DDOT": 0}, "tle": {"line1": "1 34681U 93036YB  25352.25463586  .00010681  00000+0  12979-2 0  9994", "line2": "2 34681  74.0632 279.4939 0025619 335.3830 175.6516 14.83344900893521"}}, "geometry": {"type": "Point", "coordinates": [87.02213110353314, 35.30595121564064]}}, {"type": "Feature", "properties": {"norad_id": 34682, "name": "COSMOS 2251 DEB", "group": "cosmos-2251-debris", "lat": 72.18975677947542, "lon": -171.2542684604606, "alt_km": 692.840867634095, "timestamp": "2025-12-18T15:47:11.620352+00:00", "meta": {"OBJECT_NAME": "COSMOS 2251 DEB", "OBJECT_ID": "1993-036YC", "EPOCH": "2025-12-18T05:36:23.765760", "MEAN_MOTION": 14.58934352, "ECCENTRICITY": 0.00180841, "INCLINATION": 74.0402, "RA_OF_ASC_NODE": 72.5251, "ARG_OF_PERICENTER": 205.012, "MEAN_ANOMALY": 186.2918, "EPHEMERIS_TYPE": 0, "CLASSIFICATION_TYPE": "U", "NORAD_CAT_ID": 34682, "ELEMENT_SET_NO": 999, "REV_AT_EPOCH": 88766, "BSTAR": 0.00060600452, "MEAN_MOTION_DOT": 2.819e-05, "MEAN_MOTION_DDOT": 0}, "tle": {"line1": "1 34682U 93036YC  25352.23360840  .00002819  00000+0  60600-3 0  9991", "line2": "2 34682  74.0402  72.5251 0018084 205.0120 186.2918 14.58934352887669"}}, "geometry": {"type": "Point", "coordinates": [-171.2542684604606, 72.18975677947542]}}]}